{
    "links": {
        "self": "http://www.neowsapp.com/rest/v1/neo/3264224?api_key=iIulBulltgU6a56xZRHN4H3l9WmuAYTsLGpBGhQ2"
    },
    "id": "3264224",
    "neo_reference_id": "3264224",
    "name": "(2004 YQ)",
    "designation": "2004 YQ",
    "nasa_jpl_url": "http://ssd.jpl.nasa.gov/sbdb.cgi?sstr=3264224",
    "absolute_magnitude_h": 24.4,
    "estimated_diameter": {
        "kilometers": {
            "estimated_diameter_min": 0.0350392641,
            "estimated_diameter_max": 0.0783501764
        },
        "meters": {
            "estimated_diameter_min": 35.0392641108,
            "estimated_diameter_max": 78.3501764334
        },
        "miles": {
            "estimated_diameter_min": 0.0217723826,
            "estimated_diameter_max": 0.0486845275
        },
        "feet": {
            "estimated_diameter_min": 114.9582192654,
            "estimated_diameter_max": 257.0543928497
        }
    },
    "is_potentially_hazardous_asteroid": false,
    "close_approach_data": [
        {
            "close_approach_date": "2004-12-14",
            "close_approach_date_full": "2004-Dec-14 20:33",
            "epoch_date_close_approach": 1103056380000,
            "relative_velocity": {
                "kilometers_per_second": "13.4745937557",
                "kilometers_per_hour": "48508.5375205247",
                "miles_per_hour": "30141.3187721282"
            },
            "miss_distance": {
                "astronomical": "0.0389829158",
                "lunar": "15.1643542462",
                "kilometers": "5831761.170069346",
                "miles": "3623688.3584191348"
            },
            "orbiting_body": "Earth"
        }
    ],
    "orbital_data": {
        "orbit_id": "7",
        "orbit_determination_date": "2017-04-06 09:11:40",
        "first_observation_date": "2004-12-18",
        "last_observation_date": "2004-12-20",
        "data_arc_in_days": 2,
        "observations_used": 18,
        "orbit_uncertainty": "9",
        "minimum_orbit_intersection": ".0377519",
        "jupiter_tisserand_invariant": "3.907",
        "epoch_osculation": "2453358.5",
        "eccentricity": ".4877424192493128",
        "semi_major_axis": "1.779400806661985",
        "inclination": "15.70905713355359",
        "ascending_node_longitude": "87.90613233882496",
        "orbital_period": "866.9800449269881",
        "perihelion_distance": ".9115115524064897",
        "perihelion_argument": "308.7310979614755",
        "aphelion_distance": "2.647290060917479",
        "perihelion_time": "2453318.772192730891",
        "mean_anomaly": "16.49635502058605",
        "mean_motion": ".4152344706276568",
        "equinox": "J2000",
        "orbit_class": {
            "orbit_class_type": "APO",
            "orbit_class_description": "Near-Earth asteroid orbits which cross the Earth’s orbit similar to that of 1862 Apollo",
            "orbit_class_range": "a (semi-major axis) > 1.0 AU; q (perihelion) < 1.017 AU"
        }
    },
    "is_sentry_object": false
}